[{"OBJECT_NAME":"ONEWEB-0521","OBJECT_ID":"2022-138AC","EPOCH":"2026-03-05T10:41:42.839808","MEAN_MOTION":13.19726084,"ECCENTRICITY":0.00015845,"INCLINATION":87.9242,"RA_OF_ASC_NODE":325.6147,"ARG_OF_PERICENTER":72.9326,"MEAN_ANOMALY":287.1981,"EPHEMERIS_TYPE":0,"CLASSIFICATION_TYPE":"U","NORAD_CAT_ID":54139,"ELEMENT_SET_NO":999,"REV_AT_EPOCH":16308,"BSTAR":0.00024777494,"MEAN_MOTION_DOT":1.12e-6,"MEAN_MOTION_DDOT":0},{"OBJECT_NAME":"ONEWEB-0522","OBJECT_ID":"2022-138AD","EPOCH":"2026-03-05T15:39:40.224096","MEAN_MOTION":13.19726641,"ECCENTRICITY":0.0001597,"INCLINATION":87.9244,"RA_OF_ASC_NODE":325.5745,"ARG_OF_PERICENTER":83.7571,"MEAN_ANOMALY":276.3744,"EPHEMERIS_TYPE":0,"CLASSIFICATION_TYPE":"U","NORAD_CAT_ID":54140,"ELEMENT_SET_NO":999,"REV_AT_EPOCH":16315,"BSTAR":5.0086229e-5,"MEAN_MOTION_DOT":3.3e-7,"MEAN_MOTION_DDOT":0},{"OBJECT_NAME":"ONEWEB-0523","OBJECT_ID":"2022-138AE","EPOCH":"2026-03-05T14:56:20.012640","MEAN_MOTION":13.20772504,"ECCENTRICITY":0.00019698,"INCLINATION":87.9179,"RA_OF_ASC_NODE":295.1172,"ARG_OF_PERICENTER":61.6807,"MEAN_ANOMALY":298.4525,"EPHEMERIS_TYPE":0,"CLASSIFICATION_TYPE":"U","NORAD_CAT_ID":54141,"ELEMENT_SET_NO":999,"REV_AT_EPOCH":16563,"BSTAR":4.6339091e-5,"MEAN_MOTION_DOT":3.2e-7,"MEAN_MOTION_DDOT":0},{"OBJECT_NAME":"ONEWEB-0524","OBJECT_ID":"2022-138AF","EPOCH":"2026-03-05T14:40:25.374720","MEAN_MOTION":13.20775634,"ECCENTRICITY":0.00025022,"INCLINATION":87.9171,"RA_OF_ASC_NODE":295.119,"ARG_OF_PERICENTER":80.6968,"MEAN_ANOMALY":279.4448,"EPHEMERIS_TYPE":0,"CLASSIFICATION_TYPE":"U","NORAD_CAT_ID":54142,"ELEMENT_SET_NO":999,"REV_AT_EPOCH":16563,"BSTAR":-0.0026512491,"MEAN_MOTION_DOT":-1.065e-5,"MEAN_MOTION_DDOT":0},{"OBJECT_NAME":"ONEWEB-0525","OBJECT_ID":"2022-138AG","EPOCH":"2026-03-05T05:11:54.774816","MEAN_MOTION":13.19726208,"ECCENTRICITY":0.00016683,"INCLINATION":87.9243,"RA_OF_ASC_NODE":325.6755,"ARG_OF_PERICENTER":88.0493,"MEAN_ANOMALY":272.0831,"EPHEMERIS_TYPE":0,"CLASSIFICATION_TYPE":"U","NORAD_CAT_ID":54143,"ELEMENT_SET_NO":999,"REV_AT_EPOCH":16311,"BSTAR":0.00013776555,"MEAN_MOTION_DOT":6.8e-7,"MEAN_MOTION_DDOT":0},{"OBJECT_NAME":"ONEWEB-0526","OBJECT_ID":"2022-138AH","EPOCH":"2026-03-05T05:59:40.083072","MEAN_MOTION":13.1972375,"ECCENTRICITY":0.00017397,"INCLINATION":87.9244,"RA_OF_ASC_NODE":325.6639,"ARG_OF_PERICENTER":83.4324,"MEAN_ANOMALY":276.7007,"EPHEMERIS_TYPE":0,"CLASSIFICATION_TYPE":"U","NORAD_CAT_ID":54144,"ELEMENT_SET_NO":999,"REV_AT_EPOCH":16309,"BSTAR":5.8769292e-5,"MEAN_MOTION_DOT":3.6e-7,"MEAN_MOTION_DDOT":0},{"OBJECT_NAME":"ONEWEB-0529","OBJECT_ID":"2022-138AJ","EPOCH":"2026-03-05T06:04:13.687680","MEAN_MOTION":13.19726195,"ECCENTRICITY":0.00016709,"INCLINATION":87.9236,"RA_OF_ASC_NODE":325.6814,"ARG_OF_PERICENTER":89.4136,"MEAN_ANOMALY":270.7188,"EPHEMERIS_TYPE":0,"CLASSIFICATION_TYPE":"U","NORAD_CAT_ID":54145,"ELEMENT_SET_NO":999,"REV_AT_EPOCH":16311,"BSTAR":5.129912e-6,"MEAN_MOTION_DOT":1.5e-7,"MEAN_MOTION_DDOT":0},{"OBJECT_NAME":"ONEWEB-0531","OBJECT_ID":"2022-138AK","EPOCH":"2026-03-05T14:19:58.099872","MEAN_MOTION":13.20773051,"ECCENTRICITY":0.00023506,"INCLINATION":87.9177,"RA_OF_ASC_NODE":295.1187,"ARG_OF_PERICENTER":66.1576,"MEAN_ANOMALY":293.9803,"EPHEMERIS_TYPE":0,"CLASSIFICATION_TYPE":"U","NORAD_CAT_ID":54146,"ELEMENT_SET_NO":999,"REV_AT_EPOCH":16563,"BSTAR":6.642741e-5,"MEAN_MOTION_DOT":4.0e-7,"MEAN_MOTION_DDOT":0},{"OBJECT_NAME":"ONEWEB-0535","OBJECT_ID":"2022-138AL","EPOCH":"2026-03-05T05:02:49.004160","MEAN_MOTION":13.19726705,"ECCENTRICITY":0.00017384,"INCLINATION":87.9247,"RA_OF_ASC_NODE":325.6658,"ARG_OF_PERICENTER":68.6631,"MEAN_ANOMALY":291.4687,"EPHEMERIS_TYPE":0,"CLASSIFICATION_TYPE":"U","NORAD_CAT_ID":54147,"ELEMENT_SET_NO":999,"REV_AT_EPOCH":16312,"BSTAR":7.5104922e-5,"MEAN_MOTION_DOT":4.3e-7,"MEAN_MOTION_DDOT":0},{"OBJECT_NAME":"ONEWEB-0536","OBJECT_ID":"2022-138AM","EPOCH":"2026-03-05T14:01:47.282592","MEAN_MOTION":13.20773236,"ECCENTRICITY":0.00024662,"INCLINATION":87.917,"RA_OF_ASC_NODE":295.1564,"ARG_OF_PERICENTER":67.5167,"MEAN_ANOMALY":292.6228,"EPHEMERIS_TYPE":0,"CLASSIFICATION_TYPE":"U","NORAD_CAT_ID":54148,"ELEMENT_SET_NO":999,"REV_AT_EPOCH":16562,"BSTAR":0.00027853948,"MEAN_MOTION_DOT":1.26e-6,"MEAN_MOTION_DDOT":0},{"OBJECT_NAME":"ONEWEB-0527","OBJECT_ID":"2022-166A","EPOCH":"2026-03-05T13:00:59.928192","MEAN_MOTION":13.2182555,"ECCENTRICITY":0.00016615,"INCLINATION":87.9163,"RA_OF_ASC_NODE":264.6663,"ARG_OF_PERICENTER":93.3137,"MEAN_ANOMALY":266.8187,"EPHEMERIS_TYPE":0,"CLASSIFICATION_TYPE":"U","NORAD_CAT_ID":54642,"ELEMENT_SET_NO":999,"REV_AT_EPOCH":15784,"BSTAR":8.9311485e-5,"MEAN_MOTION_DOT":5.0e-7,"MEAN_MOTION_DDOT":0},{"OBJECT_NAME":"ONEWEB-0528","OBJECT_ID":"2022-166B","EPOCH":"2026-03-05T14:59:27.993984","MEAN_MOTION":13.21826998,"ECCENTRICITY":0.00016403,"INCLINATION":87.9163,"RA_OF_ASC_NODE":264.6541,"ARG_OF_PERICENTER":93.0999,"MEAN_ANOMALY":267.0323,"EPHEMERIS_TYPE":0,"CLASSIFICATION_TYPE":"U","NORAD_CAT_ID":54643,"ELEMENT_SET_NO":999,"REV_AT_EPOCH":15786,"BSTAR":-4.2453564e-5,"MEAN_MOTION_DOT":-5.0e-8,"MEAN_MOTION_DDOT":0},{"OBJECT_NAME":"ONEWEB-0539","OBJECT_ID":"2022-166C","EPOCH":"2026-03-05T14:04:58.624896","MEAN_MOTION":13.2182578,"ECCENTRICITY":0.000141,"INCLINATION":87.9167,"RA_OF_ASC_NODE":264.627,"ARG_OF_PERICENTER":94.3045,"MEAN_ANOMALY":265.825,"EPHEMERIS_TYPE":0,"CLASSIFICATION_TYPE":"U","NORAD_CAT_ID":54644,"ELEMENT_SET_NO":999,"REV_AT_EPOCH":15785,"BSTAR":4.4673184e-5,"MEAN_MOTION_DOT":3.1e-7,"MEAN_MOTION_DDOT":0},{"OBJECT_NAME":"ONEWEB-0540","OBJECT_ID":"2022-166D","EPOCH":"2026-03-05T14:14:38.072544","MEAN_MOTION":13.21825711,"ECCENTRICITY":0.00015008,"INCLINATION":87.9165,"RA_OF_ASC_NODE":264.6619,"ARG_OF_PERICENTER":88.9359,"MEAN_ANOMALY":271.1947,"EPHEMERIS_TYPE":0,"CLASSIFICATION_TYPE":"U","NORAD_CAT_ID":54645,"ELEMENT_SET_NO":999,"REV_AT_EPOCH":15784,"BSTAR":-0.00039483125,"MEAN_MOTION_DOT":-1.5e-6,"MEAN_MOTION_DDOT":0},{"OBJECT_NAME":"ONEWEB-0542","OBJECT_ID":"2022-166E","EPOCH":"2026-03-05T14:19:10.223040","MEAN_MOTION":13.21825766,"ECCENTRICITY":0.00012605,"INCLINATION":87.9171,"RA_OF_ASC_NODE":264.6209,"ARG_OF_PERICENTER":87.9804,"MEAN_ANOMALY":272.1474,"EPHEMERIS_TYPE":0,"CLASSIFICATION_TYPE":"U","NORAD_CAT_ID":54646,"ELEMENT_SET_NO":999,"REV_AT_EPOCH":15785,"BSTAR":-0.00083355615,"MEAN_MOTION_DOT":-3.31e-6,"MEAN_MOTION_DDOT":0},{"OBJECT_NAME":"ONEWEB-0545","OBJECT_ID":"2022-166F","EPOCH":"2026-03-05T13:29:25.636992","MEAN_MOTION":13.21826231,"ECCENTRICITY":0.00011462,"INCLINATION":87.9159,"RA_OF_ASC_NODE":264.6475,"ARG_OF_PERICENTER":85.3037,"MEAN_ANOMALY":274.8228,"EPHEMERIS_TYPE":0,"CLASSIFICATION_TYPE":"U","NORAD_CAT_ID":54647,"ELEMENT_SET_NO":999,"REV_AT_EPOCH":15781,"BSTAR":0.00013918427,"MEAN_MOTION_DOT":7.1e-7,"MEAN_MOTION_DDOT":0}]
