ONEWEB-0521             
1 54139U 22138AC  26064.44563472  .00000112  00000+0  24777-3 0  9994
2 54139  87.9242 325.6147 0001584  72.9326 287.1981 13.19726084163086
ONEWEB-0522             
1 54140U 22138AD  26064.65254889  .00000033  00000+0  50086-4 0  9993
2 54140  87.9244 325.5745 0001597  83.7571 276.3744 13.19726641163153
ONEWEB-0523             
1 54141U 22138AE  26064.62245385  .00000032  00000+0  46339-4 0  9997
2 54141  87.9179 295.1172 0001969  61.6807 298.4525 13.20772504165635
ONEWEB-0524             
1 54142U 22138AF  26064.61140480 -.00001065  00000+0 -26512-2 0  9995
2 54142  87.9171 295.1190 0002502  80.6968 279.4448 13.20775634165631
ONEWEB-0525             
1 54143U 22138AG  26064.21660619  .00000068  00000+0  13777-3 0  9993
2 54143  87.9243 325.6755 0001668  88.0493 272.0831 13.19726208163112
ONEWEB-0526             
1 54144U 22138AH  26064.24976948  .00000036  00000+0  58769-4 0  9998
2 54144  87.9244 325.6639 0001739  83.4324 276.7007 13.19723750163098
ONEWEB-0529             
1 54145U 22138AJ  26064.25293620  .00000015  00000+0  51299-5 0  9998
2 54145  87.9236 325.6814 0001670  89.4136 270.7188 13.19726195163119
ONEWEB-0531             
1 54146U 22138AK  26064.59720023  .00000040  00000+0  66427-4 0  9994
2 54146  87.9177 295.1187 0002350  66.1576 293.9803 13.20773051165639
ONEWEB-0535             
1 54147U 22138AL  26064.21028940  .00000043  00000+0  75105-4 0  9999
2 54147  87.9247 325.6658 0001738  68.6631 291.4687 13.19726705163125
ONEWEB-0536             
1 54148U 22138AM  26064.58457503  .00000126  00000+0  27854-3 0  9990
2 54148  87.9170 295.1564 0002466  67.5167 292.6228 13.20773236165623
ONEWEB-0527             
1 54642U 22166A   26064.54236028  .00000050  00000+0  89311-4 0  9996
2 54642  87.9163 264.6663 0001661  93.3137 266.8187 13.21825550157845
ONEWEB-0528             
1 54643U 22166B   26064.62462956 -.00000005  00000+0 -42454-4 0  9996
2 54643  87.9163 264.6541 0001640  93.0999 267.0323 13.21826998157865
ONEWEB-0539             
1 54644U 22166C   26064.58678964  .00000031  00000+0  44673-4 0  9992
2 54644  87.9167 264.6270 0001410  94.3045 265.8250 13.21825780157852
ONEWEB-0540             
1 54645U 22166D   26064.59349621 -.00000150  00000+0 -39483-3 0  9995
2 54645  87.9165 264.6619 0001500  88.9359 271.1947 13.21825711157841
ONEWEB-0542             
1 54646U 22166E   26064.59664610 -.00000331  00000+0 -83356-3 0  9993
2 54646  87.9171 264.6209 0001260  87.9804 272.1474 13.21825766157858
ONEWEB-0545             
1 54647U 22166F   26064.56210228  .00000071  00000+0  13918-3 0  9999
2 54647  87.9159 264.6475 0001146  85.3037 274.8228 13.21826231157813
